$$SOE
2460728.500000000, A.D. 2025-Feb-22 00:00:00.0000, -4.028100862132080E+08, 1.129714681575952E+08, -3.392978237459859E+07,
2460735.500000000, A.D. 2025-Mar-01 00:00:00.0000, -4.049255593815482E+08, 1.030082146678145E+08, -3.437185265696269E+07,
2460742.500000000, A.D. 2025-Mar-08 00:00:00.0000, -4.067742227087646E+08, 9.297706818142007E+07, -3.479127572827292E+07,
2460749.500000000, A.D. 2025-Mar-15 00:00:00.0000, -4.083538540467657E+08, 8.288441041453061E+07, -3.518768993618122E+07,
2460756.500000000, A.D. 2025-Mar-22 00:00:00.0000, -4.096623417720905E+08, 7.273670321503909E+07, -3.556074141821180E+07,
2460763.500000000, A.D. 2025-Mar-29 00:00:00.0000, -4.106976880559889E+08, 6.254048730612712E+07, -3.591008437351183E+07,
2460770.500000000, A.D. 2025-Apr-05 00:00:00.0000, -4.114580105986065E+08, 5.230238187710988E+07, -3.623538143081585E+07,
2460777.500000000, A.D. 2025-Apr-12 00:00:00.0000, -4.119415447583513E+08, 4.202908511243313E+07, -3.653630392845604E+07,
2460784.500000000, A.D. 2025-Apr-19 00:00:00.0000, -4.121466462734624E+08, 3.172737476753570E+07, -3.681253216366949E+07,
2460791.500000000, A.D. 2025-Apr-26 00:00:00.0000, -4.120717943124793E+08, 2.140410858194447E+07, -3.706375565488429E+07,
2460798.500000000, A.D. 2025-May-03 00:00:00.0000, -4.117155947447514E+08, 1.106622454223693E+07, -3.728967342713591E+07,
2460805.500000000, A.D. 2025-May-10 00:00:00.0000, -4.110767836049408E+08, 7.207409953793269E+05, -3.748999432321522E+07,
2460812.500000000, A.D. 2025-May-17 00:00:00.0000, -4.101542307163990E+08, -9.625243438442666E+06, -3.766443734768228E+07,
2460819.500000000, A.D. 2025-May-24 00:00:00.0000, -4.089469433008035E+08, -1.996455021911187E+07, -3.781273206445907E+07,
2460826.500000000, A.D. 2025-May-31 00:00:00.0000, -4.074540691572733E+08, -3.028992120708663E+07, -3.793461906115294E+07,
2460833.500000000, A.D. 2025-Jun-07 00:00:00.0000, -4.056748998123491E+08, -4.059401775941473E+07, -3.802985034505653E+07,
2460840.500000000, A.D. 2025-Jun-14 00:00:00.0000, -4.036088760061656E+08, -5.086941928270777E+07, -3.809818950884385E+07,
2460847.500000000, A.D. 2025-Jun-21 00:00:00.0000, -4.012555943009883E+08, -6.110862452960805E+07, -3.813941204583279E+07,
2460854.500000000, A.D. 2025-Jun-28 00:00:00.0000, -3.986148116859279E+08, -7.130405388765681E+07, -3.815330595807059E+07,
2460861.500000000, A.D. 2025-Jul-05 00:00:00.0000, -3.956864496921505E+08, -8.144805051816623E+07, -3.813967234148922E+07,
2460868.500000000, A.D. 2025-Jul-12 00:00:00.0000, -3.924705992064030E+08, -9.153288116770354E+07, -3.809832590451108E+07,
2460875.500000000, A.D. 2025-Jul-19 00:00:00.0000, -3.889675257922093E+08, -1.015507372459541E+08, -3.802909548501264E+07,
2460882.500000000, A.D. 2025-Jul-26 00:00:00.0000, -3.851776753078991E+08, -1.114937362447184E+08, -3.793182459005120E+07,
2460889.500000000, A.D. 2025-Aug-02 00:00:00.0000, -3.811016797534035E+08, -1.213539234945883E+08, -3.780637196271312E+07,
2460896.500000000, A.D. 2025-Aug-09 00:00:00.0000, -3.767403633180094E+08, -1.311232742929633E+08, -3.765261217930154E+07,
2460903.500000000, A.D. 2025-Aug-16 00:00:00.0000, -3.720947485465080E+08, -1.407936964865966E+08, -3.747043628886205E+07,
2460910.500000000, A.D. 2025-Aug-23 00:00:00.0000, -3.671660623243091E+08, -1.503570335128778E+08, -3.725975252020294E+07,
2460917.500000000, A.D. 2025-Aug-30 00:00:00.0000, -3.619557413441930E+08, -1.598050672070152E+08, -3.702048702770204E+07,
2460924.500000000, A.D. 2025-Sep-06 00:00:00.0000, -3.564654384621928E+08, -1.691295193967909E+08, -3.675258446334090E+07,
2460931.500000000, A.D. 2025-Sep-13 00:00:00.0000, -3.506970316015214E+08, -1.783220547915490E+08, -3.645600842405890E+07,
2460938.500000000, A.D. 2025-Sep-20 00:00:00.0000, -3.446526319202971E+08, -1.873742868348693E+08, -3.613074220879386E+07,
2460945.500000000, A.D. 2025-Sep-27 00:00:00.0000, -3.383345901717355E+08, -1.962777834327225E+08, -3.577678972721842E+07,
2460952.500000000, A.D. 2025-Oct-04 00:00:00.0000, -3.317455032556887E+08, -2.050240720401951E+08, -3.539417632949242E+07,
2460959.500000000, A.D. 2025-Oct-11 00:00:00.0000, -3.248882213138009E+08, -2.136046450737648E+08, -3.498294959816468E+07,
2460966.500000000, A.D. 2025-Oct-18 00:00:00.0000, -3.177658550622578E+08, -2.220109659495640E+08, -3.454318014950085E+07,
2460973.500000000, A.D. 2025-Oct-25 00:00:00.0000, -3.103817831996954E+08, -2.302344757628649E+08, -3.407496245513897E+07,
2460980.500000000, A.D. 2025-Nov-01 00:00:00.0000, -3.027396598258815E+08, -2.382666006185408E+08, -3.357841568511790E+07,
2460987.500000000, A.D. 2025-Nov-08 00:00:00.0000, -2.948434218087122E+08, -2.460987596682831E+08, -3.305368457633886E+07,
2460994.500000000, A.D. 2025-Nov-15 00:00:00.0000, -2.866972959209495E+08, -2.537223739365426E+08, -3.250094034280621E+07,
2461001.500000000, A.D. 2025-Nov-22 00:00:00.0000, -2.783058053104020E+08, -2.611288757365763E+08, -3.192038164406353E+07,
2461008.500000000, A.D. 2025-Nov-29 00:00:00.0000, -2.696737754188377E+08, -2.683097175597745E+08, -3.131223550157312E+07,
2461015.500000000, A.D. 2025-Dec-06 00:00:00.0000, -2.608063415825989E+08, -2.752563805894726E+08, -3.067675796087217E+07,
2461022.500000000, A.D. 2025-Dec-13 00:00:00.0000, -2.517089578309335E+08, -2.819603862255611E+08, -3.001423481025600E+07,
2461029.500000000, A.D. 2025-Dec-20 00:00:00.0000, -2.423874033368986E+08, -2.884133096155255E+08, -2.932498258899422E+07,
2461036.500000000, A.D. 2025-Dec-27 00:00:00.0000, -2.328477875424909E+08, -2.946067926187103E+08, -2.860934957136631E+07,
2461043.500000000, A.D. 2026-Jan-03 00:00:00.0000, -2.230965553640734E+08, -3.005325568334132E+08, -2.786771663923378E+07,
2461050.500000000, A.D. 2026-Jan-10 00:00:00.0000, -2.131404923125350E+08, -3.061824173741345E+08, -2.710049810416661E+07,
2461057.500000000, A.D. 2026-Jan-17 00:00:00.0000, -2.029867292354292E+08, -3.115482974937905E+08, -2.630814250258552E+07,
2461064.500000000, A.D. 2026-Jan-24 00:00:00.0000, -1.926427465388993E+08, -3.166222440273252E+08, -2.549113336325015E+07,
2461071.500000000, A.D. 2026-Jan-31 00:00:00.0000, -1.821163777985235E+08, -3.213964436585101E+08, -2.464998994328530E+07,
2461078.500000000, A.D. 2026-Feb-07 00:00:00.0000, -1.714158126269374E+08, -3.258632400559998E+08, -2.378526793593179E+07,
2461085.500000000, A.D. 2026-Feb-14 00:00:00.0000, -1.605495984714916E+08, -3.300151518768590E+08, -2.289756016696565E+07,
2461092.500000000, A.D. 2026-Feb-21 00:00:00.0000, -1.495266408784585E+08, -3.338448910373942E+08, -2.198749726037472E+07,
2461099.500000000, A.D. 2026-Feb-28 00:00:00.0000, -1.383562032308634E+08, -3.373453800674530E+08, -2.105574807142889E+07,
2461106.500000000, A.D. 2026-Mar-07 00:00:00.0000, -1.270479079385381E+08, -3.405097704600883E+08, -2.010301984942076E+07,
2461113.500000000, A.D. 2026-Mar-14 00:00:00.0000, -1.156117362239773E+08, -3.433314643058492E+08, -1.913005856715959E+07,
2461120.500000000, A.D. 2026-Mar-21 00:00:00.0000, -1.040580246424045E+08, -3.458041362643280E+08, -1.813764933562614E+07,
2461127.500000000, A.D. 2026-Mar-28 00:00:00.0000, -9.239746026845483E+07, -3.479217547850667E+08, -1.712661662664926E+07,
2461134.500000000, A.D. 2026-Apr-04 00:00:00.0000, -8.064107507751815E+07, -3.496786034737588E+08, -1.609782431809177E+07,
2461141.500000000, A.D. 2026-Apr-11 00:00:00.0000, -6.880023917441101E+07, -3.510693028838921E+08, -1.505217560698991E+07,
2461148.500000000, A.D. 2026-Apr-18 00:00:00.0000, -5.688665263936090E+07, -3.520888326507722E+08, -1.399061279693371E+07,
2461155.500000000, A.D. 2026-Apr-25 00:00:00.0000, -4.491233587825455E+07, -3.527325538549685E+08, -1.291411695429175E+07,
2461162.500000000, A.D. 2026-May-02 00:00:00.0000, -3.288961838519875E+07, -3.529962315392480E+08, -1.182370743053146E+07,
2461169.500000000, A.D. 2026-May-09 00:00:00.0000, -2.083112573977324E+07, -3.528760573313984E+08, -1.072044125972563E+07,
2461176.500000000, A.D. 2026-May-16 00:00:00.0000, -8.749764416934891E+06, -3.523686719113408E+08, -9.605412447213486E+06,
2461183.500000000, A.D. 2026-May-23 00:00:00.0000, 3.341295676788460E+06, -3.514711861677040E+08, -8.479751063871324E+06,
2461190.500000000, A.D. 2026-May-30 00:00:00.0000, 1.542863888620561E+07, -3.501812005826175E+08, -7.344621923375219E+06,
2461197.500000000, A.D. 2026-Jun-06 00:00:00.0000, 2.749862140502527E+07, -3.484968259683442E+08, -6.201223076214015E+06,
2461204.500000000, A.D. 2026-Jun-13 00:00:00.0000, 3.953739245445796E+07, -3.464167052034798E+08, -5.050784436997071E+06,
2461211.500000000, A.D. 2026-Jun-20 00:00:00.0000, 5.153091852634189E+07, -3.439400328867140E+08, -3.894566257495821E+06,
2461218.500000000, A.D. 2026-Jun-27 00:00:00.0000, 6.346500896021089E+07, -3.410665730867686E+08, -2.733857316041246E+06,
2461225.500000000, A.D. 2026-Jul-04 00:00:00.0000, 7.532534280584681E+07, -3.377966757977610E+08, -1.569972886638850E+06,
2461232.500000000, A.D. 2026-Jul-11 00:00:00.0000, 8.709749716077046E+07, -3.341312920644128E+08, -4.042525235471278E+05,
2461239.500000000, A.D. 2026-Jul-18 00:00:00.0000, 9.876697699493711E+07, -3.300719875843104E+08, 7.619423286944926E+05,
2461246.500000000, A.D. 2026-Jul-25 00:00:00.0000, 1.103192463915911E+08, -3.256209546210601E+08, 1.927230892057717E+06,
2461253.500000000, A.D. 2026-Aug-01 00:00:00.0000, 1.217397611423422E+08, -3.207810221219385E+08, 3.090215762698457E+06,
2461260.500000000, A.D. 2026-Aug-08 00:00:00.0000, 1.330140027844246E+08, -3.155556639353556E+08, 4.249485738117382E+06,
2461267.500000000, A.D. 2026-Aug-15 00:00:00.0000, 1.441275143474752E+08, -3.099490045514601E+08, 5.403618752926767E+06,
2461274.500000000, A.D. 2026-Aug-22 00:00:00.0000, 1.550659368788436E+08, -3.039658210290820E+08, 6.551185081821322E+06,
2461281.500000000, A.D. 2026-Aug-29 00:00:00.0000, 1.658150442681378E+08, -2.976115423728887E+08, 7.690750894142136E+06,
2461288.500000000, A.D. 2026-Sep-05 00:00:00.0000, 1.763607783011534E+08, -2.908922491271347E+08, 8.820881713572636E+06,
$$EOE